{
  "type": "FeatureCollection",
  "features": [
    {
      "type": "Feature",
      "properties": {
        "norad_id": 31974,
        "name": "FENGYUN 1C DEB",
        "group": "fengyun-1c-debris",
        "lat": -72.19789220853993,
        "lon": 151.46278078471923,
        "alt_km": 764.5694779393953,
        "timestamp": "2025-12-13T16:48:32.995308+00:00",
        "meta_object_name": "FENGYUN 1C DEB",
        "meta_object_id": "1999-025CPB",
        "meta_epoch": "2025-12-11T11:32:33.455328",
        "meta_mean_motion": 14.29497994,
        "meta_eccentricity": 0.00715365,
        "meta_inclination": 98.3806,
        "meta_ra_of_asc_node": 356.6558,
        "meta_arg_of_pericenter": 306.568,
        "meta_mean_anomaly": 52.8933,
        "meta_ephemeris_type": 0,
        "meta_classification_type": "U",
        "meta_norad_cat_id": 31974,
        "meta_element_set_no": 999,
        "meta_rev_at_epoch": 69404,
        "meta_bstar": 0.0047833658,
        "meta_mean_motion_dot": 0.0001254,
        "meta_mean_motion_ddot": 0,
        "tle_line1": "1 31974U 99025CPB 25345.48094277  .00012540  00000+0  47834-2 0  9998",
        "tle_line2": "2 31974  98.3806 356.6558 0071536 306.5680  52.8933 14.29497994694049"
      },
      "geometry": {
        "type": "Point",
        "coordinates": [
          151.46278078471923,
          -72.19789220853993
        ]
      }
    },
    {
      "type": "Feature",
      "properties": {
        "norad_id": 31978,
        "name": "FENGYUN 1C DEB",
        "group": "fengyun-1c-debris",
        "lat": 63.19411466425483,
        "lon": 125.64107878620929,
        "alt_km": 831.2662406381123,
        "timestamp": "2025-12-13T16:48:32.995318+00:00",
        "meta_object_name": "FENGYUN 1C DEB",
        "meta_object_id": "1999-025CPF",
        "meta_epoch": "2025-12-08T09:40:24.995712",
        "meta_mean_motion": 13.63098344,
        "meta_eccentricity": 0.0263392,
        "meta_inclination": 98.3802,
        "meta_ra_of_asc_node": 138.0358,
        "meta_arg_of_pericenter": 61.5347,
        "meta_mean_anomaly": 301.2062,
        "meta_ephemeris_type": 0,
        "meta_classification_type": "U",
        "meta_norad_cat_id": 31978,
        "meta_element_set_no": 999,
        "meta_rev_at_epoch": 91531,
        "meta_bstar": 0.0016862469,
        "meta_mean_motion_dot": 1.637e-05,
        "meta_mean_motion_ddot": 0,
        "tle_line1": "1 31978U 99025CPF 25342.40306708  .00001637  00000+0  16862-2 0  9998",
        "tle_line2": "2 31978  98.3802 138.0358 0263392  61.5347 301.2062 13.63098344915313"
      },
      "geometry": {
        "type": "Point",
        "coordinates": [
          125.64107878620929,
          63.19411466425483
        ]
      }
    },
    {
      "type": "Feature",
      "properties": {
        "norad_id": 31979,
        "name": "FENGYUN 1C DEB",
        "group": "fengyun-1c-debris",
        "lat": 3.4981218885690817,
        "lon": 79.69784631442526,
        "alt_km": 982.8247950771529,
        "timestamp": "2025-12-13T16:48:32.995328+00:00",
        "meta_object_name": "FENGYUN 1C DEB",
        "meta_object_id": "1999-025CPG",
        "meta_epoch": "2025-12-12T12:44:01.456224",
        "meta_mean_motion": 13.69287583,
        "meta_eccentricity": 0.02663578,
        "meta_inclination": 99.3764,
        "meta_ra_of_asc_node": 79.1371,
        "meta_arg_of_pericenter": 281.4892,
        "meta_mean_anomaly": 75.6458,
        "meta_ephemeris_type": 0,
        "meta_classification_type": "U",
        "meta_norad_cat_id": 31979,
        "meta_element_set_no": 999,
        "meta_rev_at_epoch": 57909,
        "meta_bstar": 0.0046414648,
        "meta_mean_motion_dot": 5.124e-05,
        "meta_mean_motion_ddot": 0,
        "tle_line1": "1 31979U 99025CPG 25346.53057241  .00005124  00000+0  46415-2 0  9994",
        "tle_line2": "2 31979  99.3764  79.1371 0266357 281.4892  75.6458 13.69287583579097"
      },
      "geometry": {
        "type": "Point",
        "coordinates": [
          79.69784631442526,
          3.4981218885690817
        ]
      }
    },
    {
      "type": "Feature",
      "properties": {
        "norad_id": 31980,
        "name": "FENGYUN 1C DEB",
        "group": "fengyun-1c-debris",
        "lat": -80.9800296672198,
        "lon": 130.14184575569593,
        "alt_km": 1455.1090762373542,
        "timestamp": "2025-12-13T16:48:32.995338+00:00",
        "meta_object_name": "FENGYUN 1C DEB",
        "meta_object_id": "1999-025CPH",
        "meta_epoch": "2025-12-10T00:56:19.802976",
        "meta_mean_motion": 13.32145981,
        "meta_eccentricity": 0.04283586,
        "meta_inclination": 97.6124,
        "meta_ra_of_asc_node": 70.0196,
        "meta_arg_of_pericenter": 119.8874,
        "meta_mean_anomaly": 244.5532,
        "meta_ephemeris_type": 0,
        "meta_classification_type": "U",
        "meta_norad_cat_id": 31980,
        "meta_element_set_no": 999,
        "meta_rev_at_epoch": 89634,
        "meta_bstar": 0.00076274833,
        "meta_mean_motion_dot": 5.91e-06,
        "meta_mean_motion_ddot": 0,
        "tle_line1": "1 31980U 99025CPH 25344.03911809  .00000591  00000+0  76275-3 0  9999",
        "tle_line2": "2 31980  97.6124  70.0196 0428358 119.8874 244.5532 13.32145981896345"
      },
      "geometry": {
        "type": "Point",
        "coordinates": [
          130.14184575569593,
          -80.9800296672198
        ]
      }
    },
    {
      "type": "Feature",
      "properties": {
        "norad_id": 31984,
        "name": "FENGYUN 1C DEB",
        "group": "fengyun-1c-debris",
        "lat": -38.86581162822276,
        "lon": 165.0393928518334,
        "alt_km": 777.0236509207707,
        "timestamp": "2025-12-13T16:48:32.995348+00:00",
        "meta_object_name": "FENGYUN 1C DEB",
        "meta_object_id": "1999-025CPM",
        "meta_epoch": "2025-12-02T19:53:15.322848",
        "meta_mean_motion": 14.2293256,
        "meta_eccentricity": 0.00625309,
        "meta_inclination": 98.5577,
        "meta_ra_of_asc_node": 341.445,
        "meta_arg_of_pericenter": 256.5759,
        "meta_mean_anomaly": 102.8445,
        "meta_ephemeris_type": 0,
        "meta_classification_type": "U",
        "meta_norad_cat_id": 31984,
        "meta_element_set_no": 999,
        "meta_rev_at_epoch": 94232,
        "meta_bstar": 0.00049073387,
        "meta_mean_motion_dot": 1.083e-05,
        "meta_mean_motion_ddot": 0,
        "tle_line1": "1 31984U 99025CPM 25336.82864957  .00001083  00000+0  49073-3 0  9995",
        "tle_line2": "2 31984  98.5577 341.4450 0062530 256.5759 102.8445 14.22932560942322"
      },
      "geometry": {
        "type": "Point",
        "coordinates": [
          165.0393928518334,
          -38.86581162822276
        ]
      }
    },
    {
      "type": "Feature",
      "properties": {
        "norad_id": 31985,
        "name": "FENGYUN 1C DEB",
        "group": "fengyun-1c-debris",
        "lat": -4.402666467325647,
        "lon": -110.50202798391406,
        "alt_km": 857.3943565231357,
        "timestamp": "2025-12-13T16:48:32.995358+00:00",
        "meta_object_name": "FENGYUN 1C DEB",
        "meta_object_id": "1999-025CPN",
        "meta_epoch": "2025-12-10T12:53:19.926816",
        "meta_mean_motion": 14.22969288,
        "meta_eccentricity": 0.0150474,
        "meta_inclination": 98.2197,
        "meta_ra_of_asc_node": 245.9057,
        "meta_arg_of_pericenter": 253.2577,
        "meta_mean_anomaly": 105.2044,
        "meta_ephemeris_type": 0,
        "meta_classification_type": "U",
        "meta_norad_cat_id": 31985,
        "meta_element_set_no": 999,
        "meta_rev_at_epoch": 95579,
        "meta_bstar": 0.00055157,
        "meta_mean_motion_dot": 1.353e-05,
        "meta_mean_motion_ddot": 0,
        "tle_line1": "1 31985U 99025CPN 25344.53703619  .00001353  00000+0  55157-3 0  9990",
        "tle_line2": "2 31985  98.2197 245.9057 0150474 253.2577 105.2044 14.22969288955790"
      },
      "geometry": {
        "type": "Point",
        "coordinates": [
          -110.50202798391406,
          -4.402666467325647
        ]
      }
    },
    {
      "type": "Feature",
      "properties": {
        "norad_id": 31987,
        "name": "FENGYUN 1C DEB",
        "group": "fengyun-1c-debris",
        "lat": -33.18551030926207,
        "lon": 135.38992358056922,
        "alt_km": 729.2825682363,
        "timestamp": "2025-12-13T16:48:32.995368+00:00",
        "meta_object_name": "FENGYUN 1C DEB",
        "meta_object_id": "1999-025CPQ",
        "meta_epoch": "2025-12-12T21:40:37.059744",
        "meta_mean_motion": 14.44914051,
        "meta_eccentricity": 0.005148,
        "meta_inclination": 99.0394,
        "meta_ra_of_asc_node": 320.5185,
        "meta_arg_of_pericenter": 157.0787,
        "meta_mean_anomaly": 231.6684,
        "meta_ephemeris_type": 0,
        "meta_classification_type": "U",
        "meta_norad_cat_id": 31987,
        "meta_element_set_no": 999,
        "meta_rev_at_epoch": 96372,
        "meta_bstar": 0.0015029844,
        "meta_mean_motion_dot": 5.274e-05,
        "meta_mean_motion_ddot": 0,
        "tle_line1": "1 31987U 99025CPQ 25346.90320671  .00005274  00000+0  15030-2 0  9999",
        "tle_line2": "2 31987  99.0394 320.5185 0051480 157.0787 231.6684 14.44914051963721"
      },
      "geometry": {
        "type": "Point",
        "coordinates": [
          135.38992358056922,
          -33.18551030926207
        ]
      }
    }
  ]
}